[
    {
        "OBJECT_NAME": "GSAT0101 (GALILEO-PFM)",
        "OBJECT_ID": "2011-060A",
        "EPOCH": "2025-04-13T11:14:14.493984",
        "MEAN_MOTION": 1.70475957,
        "ECCENTRICITY": 0.0004029,
        "INCLINATION": 57.1034,
        "RA_OF_ASC_NODE": 353.4086,
        "ARG_OF_PERICENTER": 21.6106,
        "MEAN_ANOMALY": 338.4533,
        "EPHEMERIS_TYPE": 0,
        "CLASSIFICATION_TYPE": "U",
        "NORAD_CAT_ID": 37846,
        "ELEMENT_SET_NO": 999,
        "REV_AT_EPOCH": 8379,
        "BSTAR": 0,
        "MEAN_MOTION_DOT": -9.2e-07,
        "MEAN_MOTION_DDOT": 0
    },
    {
        "OBJECT_NAME": "GSAT0102 (GALILEO-FM2)",
        "OBJECT_ID": "2011-060B",
        "EPOCH": "2025-04-13T02:17:32.578080",
        "MEAN_MOTION": 1.70476197,
        "ECCENTRICITY": 0.0004818,
        "INCLINATION": 57.1043,
        "RA_OF_ASC_NODE": 353.4191,
        "ARG_OF_PERICENTER": 347.8948,
        "MEAN_ANOMALY": 188.7591,
        "EPHEMERIS_TYPE": 0,
        "CLASSIFICATION_TYPE": "U",
        "NORAD_CAT_ID": 37847,
        "ELEMENT_SET_NO": 999,
        "REV_AT_EPOCH": 8379,
        "BSTAR": 0,
        "MEAN_MOTION_DOT": -9.3e-07,
        "MEAN_MOTION_DDOT": 0
    },
    {
        "OBJECT_NAME": "GSAT0103 (GALILEO-FM3)",
        "OBJECT_ID": "2012-055A",
        "EPOCH": "2025-04-11T17:57:12.879072",
        "MEAN_MOTION": 1.70473602,
        "ECCENTRICITY": 0.0006016,
        "INCLINATION": 55.5536,
        "RA_OF_ASC_NODE": 113.3952,
        "ARG_OF_PERICENTER": 283.104,
        "MEAN_ANOMALY": 76.8748,
        "EPHEMERIS_TYPE": 0,
        "CLASSIFICATION_TYPE": "U",
        "NORAD_CAT_ID": 38857,
        "ELEMENT_SET_NO": 999,
        "REV_AT_EPOCH": 7765,
        "BSTAR": 0,
        "MEAN_MOTION_DOT": 5.5e-07,
        "MEAN_MOTION_DDOT": 0
    },
    {
        "OBJECT_NAME": "GSAT0201 (GALILEO 5)",
        "OBJECT_ID": "2014-050A",
        "EPOCH": "2025-04-12T18:23:09.070944",
        "MEAN_MOTION": 1.85519884,
        "ECCENTRICITY": 0.1625715,
        "INCLINATION": 49.3446,
        "RA_OF_ASC_NODE": 290.9737,
        "ARG_OF_PERICENTER": 162.7623,
        "MEAN_ANOMALY": 203.4738,
        "EPHEMERIS_TYPE": 0,
        "CLASSIFICATION_TYPE": "U",
        "NORAD_CAT_ID": 40128,
        "ELEMENT_SET_NO": 999,
        "REV_AT_EPOCH": 7033,
        "BSTAR": 0,
        "MEAN_MOTION_DOT": -6.2e-07,
        "MEAN_MOTION_DDOT": 0
    },
    {
        "OBJECT_NAME": "GSAT0202 (GALILEO 6)",
        "OBJECT_ID": "2014-050B",
        "EPOCH": "2025-04-13T13:29:34.813536",
        "MEAN_MOTION": 1.85520539,
        "ECCENTRICITY": 0.1625685,
        "INCLINATION": 49.3595,
        "RA_OF_ASC_NODE": 290.0225,
        "ARG_OF_PERICENTER": 163.5724,
        "MEAN_ANOMALY": 202.3825,
        "EPHEMERIS_TYPE": 0,
        "CLASSIFICATION_TYPE": "U",
        "NORAD_CAT_ID": 40129,
        "ELEMENT_SET_NO": 999,
        "REV_AT_EPOCH": 7251,
        "BSTAR": 0,
        "MEAN_MOTION_DOT": -5.8e-07,
        "MEAN_MOTION_DDOT": 0
    },
    {
        "OBJECT_NAME": "GSAT0203 (GALILEO 7)",
        "OBJECT_ID": "2015-017A",
        "EPOCH": "2025-04-12T01:46:03.991584",
        "MEAN_MOTION": 1.7047576,
        "ECCENTRICITY": 0.0007117,
        "INCLINATION": 56.8936,
        "RA_OF_ASC_NODE": 353.3398,
        "ARG_OF_PERICENTER": 282.0508,
        "MEAN_ANOMALY": 77.9131,
        "EPHEMERIS_TYPE": 0,
        "CLASSIFICATION_TYPE": "U",
        "NORAD_CAT_ID": 40544,
        "ELEMENT_SET_NO": 999,
        "REV_AT_EPOCH": 6185,
        "BSTAR": 0,
        "MEAN_MOTION_DOT": -9.7e-07,
        "MEAN_MOTION_DDOT": 0
    },
    {
        "OBJECT_NAME": "GSAT0204 (GALILEO 8)",
        "OBJECT_ID": "2015-017B",
        "EPOCH": "2025-04-08T19:25:07.253472",
        "MEAN_MOTION": 1.70475593,
        "ECCENTRICITY": 0.0002964,
        "INCLINATION": 56.905,
        "RA_OF_ASC_NODE": 353.4452,
        "ARG_OF_PERICENTER": 284.9354,
        "MEAN_ANOMALY": 75.0654,
        "EPHEMERIS_TYPE": 0,
        "CLASSIFICATION_TYPE": "U",
        "NORAD_CAT_ID": 40545,
        "ELEMENT_SET_NO": 999,
        "REV_AT_EPOCH": 2484,
        "BSTAR": 0,
        "MEAN_MOTION_DOT": -1.06e-06,
        "MEAN_MOTION_DDOT": 0
    },
    {
        "OBJECT_NAME": "GSAT0205 (GALILEO 9)",
        "OBJECT_ID": "2015-045A",
        "EPOCH": "2025-04-10T22:10:02.734464",
        "MEAN_MOTION": 1.70474035,
        "ECCENTRICITY": 0.0004912,
        "INCLINATION": 55.0945,
        "RA_OF_ASC_NODE": 233.5431,
        "ARG_OF_PERICENTER": 47.251,
        "MEAN_ANOMALY": 312.7333,
        "EPHEMERIS_TYPE": 0,
        "CLASSIFICATION_TYPE": "U",
        "NORAD_CAT_ID": 40889,
        "ELEMENT_SET_NO": 999,
        "REV_AT_EPOCH": 5964,
        "BSTAR": 0,
        "MEAN_MOTION_DOT": -2.9e-07,
        "MEAN_MOTION_DDOT": 0
    },
    {
        "OBJECT_NAME": "GSAT0206 (GALILEO 10)",
        "OBJECT_ID": "2015-045B",
        "EPOCH": "2025-04-12T21:41:48.265440",
        "MEAN_MOTION": 1.70474013,
        "ECCENTRICITY": 0.0002705,
        "INCLINATION": 55.0922,
        "RA_OF_ASC_NODE": 233.4838,
        "ARG_OF_PERICENTER": 49.4866,
        "MEAN_ANOMALY": 310.4873,
        "EPHEMERIS_TYPE": 0,
        "CLASSIFICATION_TYPE": "U",
        "NORAD_CAT_ID": 40890,
        "ELEMENT_SET_NO": 999,
        "REV_AT_EPOCH": 5970,
        "BSTAR": 0,
        "MEAN_MOTION_DOT": -1.8e-07,
        "MEAN_MOTION_DDOT": 0
    },
    {
        "OBJECT_NAME": "GSAT0209 (GALILEO 12)",
        "OBJECT_ID": "2015-079A",
        "EPOCH": "2025-04-12T11:40:02.305056",
        "MEAN_MOTION": 1.70474478,
        "ECCENTRICITY": 0.0005448,
        "INCLINATION": 55.573,
        "RA_OF_ASC_NODE": 113.0869,
        "ARG_OF_PERICENTER": 315.2462,
        "MEAN_ANOMALY": 44.7516,
        "EPHEMERIS_TYPE": 0,
        "CLASSIFICATION_TYPE": "U",
        "NORAD_CAT_ID": 41174,
        "ELEMENT_SET_NO": 999,
        "REV_AT_EPOCH": 5743,
        "BSTAR": 0,
        "MEAN_MOTION_DOT": 5.5e-07,
        "MEAN_MOTION_DDOT": 0
    },
    {
        "OBJECT_NAME": "GSAT0208 (GALILEO 11)",
        "OBJECT_ID": "2015-079B",
        "EPOCH": "2025-04-13T21:06:07.517952",
        "MEAN_MOTION": 1.70474402,
        "ECCENTRICITY": 0.0004833,
        "INCLINATION": 55.5726,
        "RA_OF_ASC_NODE": 113.046,
        "ARG_OF_PERICENTER": 315.6838,
        "MEAN_ANOMALY": 44.3114,
        "EPHEMERIS_TYPE": 0,
        "CLASSIFICATION_TYPE": "U",
        "NORAD_CAT_ID": 41175,
        "ELEMENT_SET_NO": 999,
        "REV_AT_EPOCH": 5787,
        "BSTAR": 0,
        "MEAN_MOTION_DOT": 5.5e-07,
        "MEAN_MOTION_DDOT": 0
    },
    {
        "OBJECT_NAME": "GSAT0211 (GALILEO 14)",
        "OBJECT_ID": "2016-030A",
        "EPOCH": "2025-04-11T15:45:30.051648",
        "MEAN_MOTION": 1.70474105,
        "ECCENTRICITY": 0.0002565,
        "INCLINATION": 55.2416,
        "RA_OF_ASC_NODE": 233.5617,
        "ARG_OF_PERICENTER": 13.7254,
        "MEAN_ANOMALY": 346.2263,
        "EPHEMERIS_TYPE": 0,
        "CLASSIFICATION_TYPE": "U",
        "NORAD_CAT_ID": 41549,
        "ELEMENT_SET_NO": 999,
        "REV_AT_EPOCH": 5531,
        "BSTAR": 0,
        "MEAN_MOTION_DOT": -2.5e-07,
        "MEAN_MOTION_DDOT": 0
    },
    {
        "OBJECT_NAME": "GSAT0210 (GALILEO 13)",
        "OBJECT_ID": "2016-030B",
        "EPOCH": "2025-04-12T12:01:23.865888",
        "MEAN_MOTION": 1.70474101,
        "ECCENTRICITY": 0.0002013,
        "INCLINATION": 55.2413,
        "RA_OF_ASC_NODE": 233.5367,
        "ARG_OF_PERICENTER": 203.5336,
        "MEAN_ANOMALY": 156.4055,
        "EPHEMERIS_TYPE": 0,
        "CLASSIFICATION_TYPE": "U",
        "NORAD_CAT_ID": 41550,
        "ELEMENT_SET_NO": 999,
        "REV_AT_EPOCH": 5532,
        "BSTAR": 0,
        "MEAN_MOTION_DOT": -2e-07,
        "MEAN_MOTION_DDOT": 0
    }
]