GSAT0101 (GALILEO-PFM)  
1 37846U 11060A   25103.46822331 -.00000092  00000+0  00000+0 0  9996
2 37846  57.1034 353.4086 0004029  21.6106 338.4533  1.70475957 83791
GSAT0102 (GALILEO-FM2)  
1 37847U 11060B   25103.09551595 -.00000093  00000+0  00000+0 0  9998
2 37847  57.1043 353.4191 0004818 347.8948 188.7591  1.70476197 83799
GSAT0103 (GALILEO-FM3)  
1 38857U 12055A   25101.74806573  .00000055  00000+0  00000+0 0  9991
2 38857  55.5536 113.3952 0006016 283.1040  76.8748  1.70473602 77652
GSAT0201 (GALILEO 5)    
1 40128U 14050A   25102.76607721 -.00000062  00000+0  00000+0 0  9998
2 40128  49.3446 290.9737 1625715 162.7623 203.4738  1.85519884 70337
GSAT0202 (GALILEO 6)    
1 40129U 14050B   25103.56220849 -.00000058  00000+0  00000+0 0  9995
2 40129  49.3595 290.0225 1625685 163.5724 202.3825  1.85520539 72519
GSAT0203 (GALILEO 7)    
1 40544U 15017A   25102.07365731 -.00000097  00000+0  00000+0 0  9998
2 40544  56.8936 353.3398 0007117 282.0508  77.9131  1.70475760 61856
GSAT0204 (GALILEO 8)    
1 40545U 15017B   25098.80911173 -.00000106  00000+0  00000+0 0  9992
2 40545  56.9050 353.4452 0002964 284.9354  75.0654  1.70475593 24843
GSAT0205 (GALILEO 9)    
1 40889U 15045A   25100.92364276 -.00000029  00000+0  00000+0 0  9991
2 40889  55.0945 233.5431 0004912  47.2510 312.7333  1.70474035 59642
GSAT0206 (GALILEO 10)   
1 40890U 15045B   25102.90403085 -.00000018  00000+0  00000+0 0  9993
2 40890  55.0922 233.4838 0002705  49.4866 310.4873  1.70474013 59702
GSAT0209 (GALILEO 12)   
1 41174U 15079A   25102.48613779  .00000055  00000+0  00000+0 0  9992
2 41174  55.5730 113.0869 0005448 315.2462  44.7516  1.70474478 57434
GSAT0208 (GALILEO 11)   
1 41175U 15079B   25103.87925368  .00000055  00000+0  00000+0 0  9997
2 41175  55.5726 113.0460 0004833 315.6838  44.3114  1.70474402 58039
GSAT0211 (GALILEO 14)   
1 41549U 16030A   25101.65659782 -.00000025  00000+0  00000+0 0  9996
2 41549  55.2416 233.5617 0002565  13.7254 346.2263  1.70474105 55314
GSAT0210 (GALILEO 13)   
1 41550U 16030B   25102.50097067 -.00000020  00000+0  00000+0 0  9990
2 41550  55.2413 233.5367 0002013 203.5336 156.4055  1.70474101 55320
